[
{
"name": "SYRACUSE 3A",
"line1": "1 28885U 05041B   26179.88482424  .00000136  00000+0  00000+0 0  9994",
"line2": "2 28885   4.6712  75.6949 0002771  17.4236 189.0369  1.00273093 75860"
},
{
"name": "SYRACUSE 3B",
"line1": "1 29273U 06033B   26179.95950556  .00000057  00000+0  00000+0 0  9994",
"line2": "2 29273   2.9369  80.0590 0002914 328.9258 277.3470  0.98625473 72776"
},
{
"name": "SYRACUSE 4A",
"line1": "1 49333U 21095B   26179.95586554  .00000000  00000+0  00000+0 0  9999",
"line2": "2 49333   0.0278  27.9431 0001504  63.7077 215.0162  1.00269484 18063"
},
{
"name": "SYRACUSE 4B",
"line1": "1 57214U 23093B   26179.94554639  .00000000  00000+0  00000+0 0  9994",
"line2": "2 57214   0.0269  33.7427 0001006 143.5541  73.6674  1.00255165  7087"
}
]